{
  "type": "FeatureCollection",
  "features": [
    {
      "type": "Feature",
      "properties": {
        "norad_id": 30306,
        "name": "FENGYUN 1C DEB",
        "group": "fengyun-1c-debris",
        "lat": -43.03519310354741,
        "lon": 39.70424542957766,
        "alt_km": 733.5519545539601,
        "timestamp": "2025-12-16T13:52:37.798689+00:00",
        "meta_object_name": "FENGYUN 1C DEB",
        "meta_object_id": "1999-025ZT",
        "meta_epoch": "2025-12-15T01:05:13.171776",
        "meta_mean_motion": 14.28216862,
        "meta_eccentricity": 0.01132043,
        "meta_inclination": 98.5875,
        "meta_ra_of_asc_node": 30.0856,
        "meta_arg_of_pericenter": 350.7253,
        "meta_mean_anomaly": 9.1836,
        "meta_ephemeris_type": 0,
        "meta_classification_type": "U",
        "meta_norad_cat_id": 30306,
        "meta_element_set_no": 999,
        "meta_rev_at_epoch": 97714,
        "meta_bstar": 0.00078653705,
        "meta_mean_motion_dot": 2.055e-05,
        "meta_mean_motion_ddot": 0,
        "tle_line1": "1 30306U 99025ZT  25349.04529134  .00002055  00000+0  78654-3 0  9992",
        "tle_line2": "2 30306  98.5875  30.0856 0113204 350.7253   9.1836 14.28216862977149"
      },
      "geometry": {
        "type": "Point",
        "coordinates": [
          39.70424542957766,
          -43.03519310354741
        ]
      }
    },
    {
      "type": "Feature",
      "properties": {
        "norad_id": 30309,
        "name": "FENGYUN 1C DEB",
        "group": "fengyun-1c-debris",
        "lat": 75.43093206116647,
        "lon": -93.55959421145721,
        "alt_km": 896.8195374560873,
        "timestamp": "2025-12-16T13:52:37.798699+00:00",
        "meta_object_name": "FENGYUN 1C DEB",
        "meta_object_id": "1999-025ZW",
        "meta_epoch": "2025-12-15T09:48:59.010912",
        "meta_mean_motion": 13.93521817,
        "meta_eccentricity": 0.00934808,
        "meta_inclination": 99.2258,
        "meta_ra_of_asc_node": 46.5674,
        "meta_arg_of_pericenter": 184.6167,
        "meta_mean_anomaly": 175.4141,
        "meta_ephemeris_type": 0,
        "meta_classification_type": "U",
        "meta_norad_cat_id": 30309,
        "meta_element_set_no": 999,
        "meta_rev_at_epoch": 96070,
        "meta_bstar": 0.00018200211,
        "meta_mean_motion_dot": 2.03e-06,
        "meta_mean_motion_ddot": 0,
        "tle_line1": "1 30309U 99025ZW  25349.40901633  .00000203  00000+0  18200-3 0  9997",
        "tle_line2": "2 30309  99.2258  46.5674 0093480 184.6167 175.4141 13.93521817960706"
      },
      "geometry": {
        "type": "Point",
        "coordinates": [
          -93.55959421145721,
          75.43093206116647
        ]
      }
    },
    {
      "type": "Feature",
      "properties": {
        "norad_id": 30310,
        "name": "FENGYUN 1C DEB",
        "group": "fengyun-1c-debris",
        "lat": -44.32230072181214,
        "lon": -178.49636669688084,
        "alt_km": 960.2084417610295,
        "timestamp": "2025-12-16T13:52:37.798709+00:00",
        "meta_object_name": "FENGYUN 1C DEB",
        "meta_object_id": "1999-025ZX",
        "meta_epoch": "2025-12-15T00:59:38.301792",
        "meta_mean_motion": 14.08393552,
        "meta_eccentricity": 0.02407948,
        "meta_inclination": 98.6652,
        "meta_ra_of_asc_node": 8.5908,
        "meta_arg_of_pericenter": 350.9802,
        "meta_mean_anomaly": 8.708,
        "meta_ephemeris_type": 0,
        "meta_classification_type": "U",
        "meta_norad_cat_id": 30310,
        "meta_element_set_no": 999,
        "meta_rev_at_epoch": 96764,
        "meta_bstar": 0.00057766429,
        "meta_mean_motion_dot": 1.247e-05,
        "meta_mean_motion_ddot": 0,
        "tle_line1": "1 30310U 99025ZX  25349.04141553  .00001247  00000+0  57766-3 0  9995",
        "tle_line2": "2 30310  98.6652   8.5908 0240794 350.9802   8.7080 14.08393552967643"
      },
      "geometry": {
        "type": "Point",
        "coordinates": [
          -178.49636669688084,
          -44.32230072181214
        ]
      }
    },
    {
      "type": "Feature",
      "properties": {
        "norad_id": 30311,
        "name": "FENGYUN 1C DEB",
        "group": "fengyun-1c-debris",
        "lat": 6.048401235645636,
        "lon": 85.14714916253858,
        "alt_km": 1094.969607845701,
        "timestamp": "2025-12-16T13:52:37.798719+00:00",
        "meta_object_name": "FENGYUN 1C DEB",
        "meta_object_id": "1999-025ZY",
        "meta_epoch": "2025-12-15T11:42:18.800640",
        "meta_mean_motion": 13.77891488,
        "meta_eccentricity": 0.01654008,
        "meta_inclination": 99.1394,
        "meta_ra_of_asc_node": 85.0746,
        "meta_arg_of_pericenter": 189.7137,
        "meta_mean_anomaly": 170.0804,
        "meta_ephemeris_type": 0,
        "meta_classification_type": "U",
        "meta_norad_cat_id": 30311,
        "meta_element_set_no": 999,
        "meta_rev_at_epoch": 94998,
        "meta_bstar": 0.00042811221,
        "meta_mean_motion_dot": 4.32e-06,
        "meta_mean_motion_ddot": 0,
        "tle_line1": "1 30311U 99025ZY  25349.48771760  .00000432  00000+0  42811-3 0  9993",
        "tle_line2": "2 30311  99.1394  85.0746 0165400 189.7137 170.0804 13.77891488949982"
      },
      "geometry": {
        "type": "Point",
        "coordinates": [
          85.14714916253858,
          6.048401235645636
        ]
      }
    },
    {
      "type": "Feature",
      "properties": {
        "norad_id": 30312,
        "name": "FENGYUN 1C DEB",
        "group": "fengyun-1c-debris",
        "lat": -39.93754437726754,
        "lon": 77.53224005522901,
        "alt_km": 749.9975122767764,
        "timestamp": "2025-12-16T13:52:37.798732+00:00",
        "meta_object_name": "FENGYUN 1C DEB",
        "meta_object_id": "1999-025ZZ",
        "meta_epoch": "2025-12-15T18:41:40.073856",
        "meta_mean_motion": 14.45884259,
        "meta_eccentricity": 0.0012032,
        "meta_inclination": 98.8662,
        "meta_ra_of_asc_node": 69.1879,
        "meta_arg_of_pericenter": 200.7727,
        "meta_mean_anomaly": 280.6675,
        "meta_ephemeris_type": 0,
        "meta_classification_type": "U",
        "meta_norad_cat_id": 30312,
        "meta_element_set_no": 999,
        "meta_rev_at_epoch": 97964,
        "meta_bstar": 0.0015567329,
        "meta_mean_motion_dot": 5.493e-05,
        "meta_mean_motion_ddot": 0,
        "tle_line1": "1 30312U 99025ZZ  25349.77893604  .00005493  00000+0  15567-2 0  9997",
        "tle_line2": "2 30312  98.8662  69.1879 0012032 200.7727 280.6675 14.45884259979642"
      },
      "geometry": {
        "type": "Point",
        "coordinates": [
          77.53224005522901,
          -39.93754437726754
        ]
      }
    },
    {
      "type": "Feature",
      "properties": {
        "norad_id": 30313,
        "name": "FENGYUN 1C DEB",
        "group": "fengyun-1c-debris",
        "lat": 56.112421573985245,
        "lon": -89.75394925211596,
        "alt_km": 839.0676283160265,
        "timestamp": "2025-12-16T13:52:37.798742+00:00",
        "meta_object_name": "FENGYUN 1C DEB",
        "meta_object_id": "1999-025AAA",
        "meta_epoch": "2025-12-15T19:19:41.579904",
        "meta_mean_motion": 14.25478183,
        "meta_eccentricity": 0.0056422,
        "meta_inclination": 98.8753,
        "meta_ra_of_asc_node": 76.0116,
        "meta_arg_of_pericenter": 326.8708,
        "meta_mean_anomaly": 151.7282,
        "meta_ephemeris_type": 0,
        "meta_classification_type": "U",
        "meta_norad_cat_id": 30313,
        "meta_element_set_no": 999,
        "meta_rev_at_epoch": 97133,
        "meta_bstar": 0.0011961638,
        "meta_mean_motion_dot": 2.828e-05,
        "meta_mean_motion_ddot": 0,
        "tle_line1": "1 30313U 99025AAA 25349.80534236  .00002828  00000+0  11962-2 0  9999",
        "tle_line2": "2 30313  98.8753  76.0116 0056422 326.8708 151.7282 14.25478183971338"
      },
      "geometry": {
        "type": "Point",
        "coordinates": [
          -89.75394925211596,
          56.112421573985245
        ]
      }
    },
    {
      "type": "Feature",
      "properties": {
        "norad_id": 30314,
        "name": "FENGYUN 1C DEB",
        "group": "fengyun-1c-debris",
        "lat": 9.432273952847936,
        "lon": 2.535795564488382,
        "alt_km": 994.506770326524,
        "timestamp": "2025-12-16T13:52:37.798752+00:00",
        "meta_object_name": "FENGYUN 1C DEB",
        "meta_object_id": "1999-025AAB",
        "meta_epoch": "2025-12-11T11:23:18.286944",
        "meta_mean_motion": 14.0118585,
        "meta_eccentricity": 0.01424052,
        "meta_inclination": 98.3809,
        "meta_ra_of_asc_node": 176.4445,
        "meta_arg_of_pericenter": 1.4637,
        "meta_mean_anomaly": 358.6919,
        "meta_ephemeris_type": 0,
        "meta_classification_type": "U",
        "meta_norad_cat_id": 30314,
        "meta_element_set_no": 999,
        "meta_rev_at_epoch": 96091,
        "meta_bstar": 0.0016680196,
        "meta_mean_motion_dot": 2.699e-05,
        "meta_mean_motion_ddot": 0,
        "tle_line1": "1 30314U 99025AAB 25345.47451721  .00002699  00000+0  16680-2 0  9994",
        "tle_line2": "2 30314  98.3809 176.4445 0142405   1.4637 358.6919 14.01185850960917"
      },
      "geometry": {
        "type": "Point",
        "coordinates": [
          2.535795564488382,
          9.432273952847936
        ]
      }
    }
  ]
}